MIDORI II (ADEOS-II)    
1 27597U 02056A   24223.46469479  .00000948  00000+0  39672-3 0  9995
2 27597  98.6939 169.9391 0000463 131.0719 229.0502 14.28447926128007
H-2A R/B                
1 27601U 02056E   24223.56400411  .00001175  00000+0  43203-3 0  9991
2 27601  98.2343 197.9494 0072484  79.4752  33.5029 14.32902245131570
CZ-4B R/B               
1 28059U 03049C   24223.48772064  .00001164  00000+0  28437-3 0  9999
2 28059  98.6149 187.4048 0048795 188.9865 171.0462 14.53891156102831
CZ-2C R/B               
1 28222U 04012C   24223.61683370  .00021251  00000+0  77200-3 0  9999
2 28222  97.8030 239.0611 0032347 216.2090 143.6959 15.27814373115405
SL-16 R/B               
1 28353U 04021B   24223.61912567  .00000184  00000+0  12079-3 0  9992
2 28353  71.0037   1.2910 0005986 216.5015 143.5700 14.14438537 41377
CZ-4B R/B               
1 28415U 04035C   24223.58374397  .00011871  00000+0  59617-3 0  9999
2 28415  97.4201 256.0636 0041773 192.0925 167.9309 15.16658247 92206
CZ-2C R/B               
1 28480U 04046B   24223.38299132  .00000921  00000+0  35935-3 0  9995
2 28480  98.1638 163.9791 0141700  59.3241 302.1818 14.26432071 26328
ARIANE 5 R/B            
1 28499U 04049H   24223.45398147  .00003026  00000+0  35598-3 0  9996
2 28499  98.1917   2.7020 0088825  57.9707 303.0097 14.82826646 60315
CZ-2D R/B               
1 28738U 05024B   24223.59199955  .00020778  00000+0  76646-3 0  9999
2 28738  97.3654 221.4306 0006285 321.9715  38.1080 15.27792418 50967
SUZAKU (ASTRO-EII)      
1 28773U 05025A   24223.15408669  .00063232  00000+0  10489-2 0  9990
2 28773  31.3860 131.6579 0001719 248.6526 111.3947 15.50830125 55368
ALOS (DAICHI)           
1 28931U 06002A   24223.48761286  .00004285  00000+0  78746-3 0  9999
2 28931  98.0393 175.4075 0001525  55.7729 304.3619 14.66163410988939
H-2A R/B                
1 28932U 06002B   24223.21327686  .00011754  00000+0  85165-3 0  9995
2 28932  98.2010 317.9641 0068599  25.8106 334.6513 15.02224595  7441
RESURS-DK 1             
1 29228U 06021A   24223.56306720  .00005431  00000+0  36107-3 0  9996
2 29228  69.9345 282.2446 0007362 281.8901  78.1437 15.07740001   528
GENESIS 1               
1 29252U 06029A   24223.59375960  .00035883  00000+0  84334-3 0  9995
2 29252  64.5163 342.0520 0030469 315.9598  43.9109 15.41337461998967
CZ-4B R/B               
1 29507U 06046C   24223.56689595  .00009969  00000+0  63314-3 0  9997
2 29507  97.6401 259.3141 0041504  92.0304 268.5678 15.08336871972911
CZ-2C R/B               
1 31114U 07010B   24223.37866419  .00000557  00000+0  27682-3 0  9999
2 31114  98.3398 356.3012 0059636 169.6462 190.5959 14.19833743897921
COSMO-SKYMED 1          
1 31598U 07023A   24223.54939058  .00001777  00000+0  22965-3 0  9992
2 31598  97.8888  45.8988 0001446  86.7705 273.3674 14.82159046929176
GENESIS 2               
1 31789U 07028A   24223.56728099  .00032705  00000+0  82999-3 0  9990
2 31789  64.4904  28.1094 0017164 230.3122 129.6498 15.39380663945789
COSMOS 2428             
1 31792U 07029A   24223.57889277  .00000083  00000+0  70391-4 0  9990
2 31792  70.9378 332.6263 0010375 326.2904  33.7556 14.12704806882724
SL-16 R/B               
1 31793U 07029B   24223.61584580  .00000063  00000+0  57657-4 0  9993
2 31793  70.9774 303.1984 0002219 266.3227 196.5140 14.14653502883892
KORONAS-FOTON           
1 33504U 09003A   24223.20328518  .00013449  00000+0  50006-3 0  9993
2 33504  82.4386 148.1055 0017137  56.9079 303.3802 15.27259994857391
CZ-2C R/B               
1 37731U 11030B   24223.49895095  .00004435  00000+0  60530-3 0  9990
2 37731  97.7678 185.4281 0057354  64.8582  49.8401 14.77967531704875
H-2A R/B                
1 38341U 12025E   24223.37836135  .00006919  00000+0  72267-3 0  9999
2 38341  98.4185 138.3337 0050955  33.9792 326.4669 14.89085790662259
CUSAT 2 & FALCON 9 R/B  
1 39271U 13055G   24223.49856932  .00128314  25896-5  12551-2 0  9995
2 39271  80.9293  13.6010 0271066 123.4058 239.3429 15.31725683573661
SHIJIAN-16 (SJ-16)      
1 39358U 13057A   24223.53703914  .00003555  00000+0  37899-3 0  9995
2 39358  74.9731 193.6134 0016124  65.3040 294.9823 14.89091102585639
SL-4 R/B                
1 39679U 14021B   24223.52367564  .00012367  00000+0  44240-3 0  9998
2 39679  51.6120 231.3102 0132980 190.0472 169.7841 15.21184912568031
ALOS-2                  
1 39766U 14029A   24223.55463825  .00006276  00000+0  84649-3 0  9992
2 39766  97.9225 319.4198 0001574  96.5637 263.5753 14.79474038551688
SL-27 R/B               
1 40354U 14084B   24223.58845861  .00123130  00000+0  51577-3 0  9998
2 40354  74.7183  90.1912 0017883 207.7497 152.2787 15.84909965542732
YAOGAN-29               
1 41038U 15069A   24223.60464009  .00001472  00000+0  19323-3 0  9993
2 41038  98.0549 238.3338 0002959  75.3247 284.8294 14.81805927470526
ASTRO-H (HITOMI)        
1 41337U 16012A   24223.08610016  .00006743  00000+0  46646-3 0  9991
2 41337  31.0015 103.5701 0011264 313.1424  46.8270 15.04256530465147
HXMT (HUIYAN)           
1 42758U 17034A   24223.56089429  .00016742  00000+0  87673-3 0  9990
2 42758  43.0152 333.7168 0012041 141.1278 219.0437 15.15505328395082
CZ-2C R/B               
1 43521U 18054D   24223.06980123  .00025291  00000+0  80052-3 0  9991
2 43521  35.1429 134.8382 0057230 260.5103  98.9145 15.30206448339121
SAOCOM 1A               
1 43641U 18076A   24223.55798894  .00001537  00000+0  19960-3 0  9991
2 43641  97.8898  48.9972 0001347  90.6149 269.5218 14.82159600316023
H-2A R/B                
1 43682U 18084L   24223.16795455  .00019017  00000+0  96329-3 0  9998
2 43682  98.8514 319.4809 0043477 188.8529 171.1938 15.16217471317679
SAOCOM 1B               
1 46265U 20059A   24223.52173394  .00001510  00000+0  19620-3 0  9993
2 46265  97.8902  48.0557 0001333  90.0587 270.0779 14.82157074213409
CSS (TIANHE)            
1 48274U 21035A   24223.06697289  .00051765  00000+0  62237-3 0  9992
2 48274  41.4681 114.6676 0001271 248.2144 111.8559 15.59999540187527
COSMOS 2550             
1 48865U 21056A   24223.60406634  .00000370  00000+0  17078-4 0  9993
2 48865  67.1417 343.6920 0008389 269.7026  90.3167 15.33833268175119
CZ-2C R/B               
1 52794U 22058K   24223.56671172  .00019897  00000+0  73473-3 0  9992
2 52794  50.2048 333.5510 0078924 347.6594  12.2430 15.24787928121410
XRISM                   
1 57800U 23137A   24223.53974355  .00011811  00000+0  87510-3 0  9995
2 57800  31.0039  26.4632 0010090  27.1235 332.9927 15.01893481 50786
SZ-17 MODULE            
1 59624U 23164C   24223.11578168  .00065892  00000+0  52312-3 0  9997
2 59624  41.4750 111.4956 0010200 271.8546  88.1128 15.70250357 16002
